[{"OBJECT_NAME":"STARLINK-30816","OBJECT_ID":"2023-166N","EPOCH":"2026-03-09T17:05:39.391872","MEAN_MOTION":15.30188916,"ECCENTRICITY":8.988e-5,"INCLINATION":53.159,"RA_OF_ASC_NODE":219.4458,"ARG_OF_PERICENTER":82.798,"MEAN_ANOMALY":277.3123,"EPHEMERIS_TYPE":0,"CLASSIFICATION_TYPE":"U","NORAD_CAT_ID":58162,"ELEMENT_SET_NO":999,"REV_AT_EPOCH":13318,"BSTAR":1.0660924e-5,"MEAN_MOTION_DOT":-4.3e-7,"MEAN_MOTION_DDOT":0},{"OBJECT_NAME":"SCS-01 B","OBJECT_ID":"2025-100B","EPOCH":"2026-03-09T21:49:11.508672","MEAN_MOTION":15.3317485,"ECCENTRICITY":0.00088698,"INCLINATION":97.3706,"RA_OF_ASC_NODE":145.9041,"ARG_OF_PERICENTER":288.6157,"MEAN_ANOMALY":71.4122,"EPHEMERIS_TYPE":0,"CLASSIFICATION_TYPE":"U","NORAD_CAT_ID":63983,"ELEMENT_SET_NO":999,"REV_AT_EPOCH":4567,"BSTAR":0.00098809397,"MEAN_MOTION_DOT":0.00031724,"MEAN_MOTION_DDOT":0}]
